{
  "type": "FeatureCollection",
  "features": [
    {
      "type": "Feature",
      "properties": {
        "norad_id": 29268,
        "name": "ARIRANG-2 (KOMPSAT-2)",
        "group": "resource",
        "lat": -22.60840500960402,
        "lon": -10.08689125986698,
        "alt_km": 688.0089833100601,
        "timestamp": "2025-12-10T14:53:36.779160+00:00",
        "meta_object_name": "ARIRANG-2 (KOMPSAT-2)",
        "meta_object_id": "2006-031A",
        "meta_epoch": "2025-12-10T07:58:26.052672",
        "meta_mean_motion": 14.64489431,
        "meta_eccentricity": 0.00136369,
        "meta_inclination": 97.8261,
        "meta_ra_of_asc_node": 172.9224,
        "meta_arg_of_pericenter": 317.451,
        "meta_mean_anomaly": 166.2619,
        "meta_ephemeris_type": 0,
        "meta_classification_type": "U",
        "meta_norad_cat_id": 29268,
        "meta_element_set_no": 999,
        "meta_rev_at_epoch": 3383,
        "meta_bstar": 8.6623512e-05,
        "meta_mean_motion_dot": 4.14e-06,
        "meta_mean_motion_ddot": 0,
        "tle_line1": "1 29268U 06031A   25344.33224598  .00000414  00000+0  86624-4 0  9999",
        "tle_line2": "2 29268  97.8261 172.9224 0013636 317.4510 166.2619 14.64489431 33831"
      },
      "geometry": {
        "type": "Point",
        "coordinates": [
          -10.08689125986698,
          -22.60840500960402
        ]
      }
    },
    {
      "type": "Feature",
      "properties": {
        "norad_id": 29709,
        "name": "LAPAN-TUBSAT",
        "group": "resource",
        "lat": -23.934734517193593,
        "lon": -21.630603015392808,
        "alt_km": 619.3828123873873,
        "timestamp": "2025-12-10T14:53:36.779170+00:00",
        "meta_object_name": "LAPAN-TUBSAT",
        "meta_object_id": "2007-001A",
        "meta_epoch": "2025-12-10T06:55:12.432576",
        "meta_mean_motion": 14.85666365,
        "meta_eccentricity": 0.0013722,
        "meta_inclination": 98.1258,
        "meta_ra_of_asc_node": 334.3943,
        "meta_arg_of_pericenter": 81.2595,
        "meta_mean_anomaly": 279.0173,
        "meta_ephemeris_type": 0,
        "meta_classification_type": "U",
        "meta_norad_cat_id": 29709,
        "meta_element_set_no": 999,
        "meta_rev_at_epoch": 2310,
        "meta_bstar": 0.00015851496,
        "meta_mean_motion_dot": 1.319e-05,
        "meta_mean_motion_ddot": 0,
        "tle_line1": "1 29709U 07001A   25344.28833834  .00001319  00000+0  15851-3 0  9998",
        "tle_line2": "2 29709  98.1258 334.3943 0013722  81.2595 279.0173 14.85666365 23101"
      },
      "geometry": {
        "type": "Point",
        "coordinates": [
          -21.630603015392808,
          -23.934734517193593
        ]
      }
    },
    {
      "type": "Feature",
      "properties": {
        "norad_id": 31113,
        "name": "HAIYANG-1B",
        "group": "resource",
        "lat": -78.56256550837809,
        "lon": 15.395836830088047,
        "alt_km": 801.8744322910434,
        "timestamp": "2025-12-10T14:53:36.779179+00:00",
        "meta_object_name": "HAIYANG-1B",
        "meta_object_id": "2007-010A",
        "meta_epoch": "2025-12-10T05:12:28.449216",
        "meta_mean_motion": 14.30963701,
        "meta_eccentricity": 0.00143696,
        "meta_inclination": 98.3312,
        "meta_ra_of_asc_node": 328.5993,
        "meta_arg_of_pericenter": 44.9967,
        "meta_mean_anomaly": 315.2378,
        "meta_ephemeris_type": 0,
        "meta_classification_type": "U",
        "meta_norad_cat_id": 31113,
        "meta_element_set_no": 999,
        "meta_rev_at_epoch": 97360,
        "meta_bstar": 9.8201765e-05,
        "meta_mean_motion_dot": 2.17e-06,
        "meta_mean_motion_ddot": 0,
        "tle_line1": "1 31113U 07010A   25344.21699594  .00000217  00000+0  98202-4 0  9994",
        "tle_line2": "2 31113  98.3312 328.5993 0014369  44.9967 315.2378 14.30963701973606"
      },
      "geometry": {
        "type": "Point",
        "coordinates": [
          15.395836830088047,
          -78.56256550837809
        ]
      }
    },
    {
      "type": "Feature",
      "properties": {
        "norad_id": 31598,
        "name": "COSMO-SKYMED 1",
        "group": "resource",
        "lat": -35.08110155767478,
        "lon": -15.578629562742575,
        "alt_km": 586.8698727829906,
        "timestamp": "2025-12-10T14:53:36.779189+00:00",
        "meta_object_name": "COSMO-SKYMED 1",
        "meta_object_id": "2007-023A",
        "meta_epoch": "2025-12-10T07:30:41.375232",
        "meta_mean_motion": 14.95734223,
        "meta_eccentricity": 0.00010569,
        "meta_inclination": 97.8835,
        "meta_ra_of_asc_node": 169.6965,
        "meta_arg_of_pericenter": 85.0865,
        "meta_mean_anomaly": 275.0476,
        "meta_ephemeris_type": 0,
        "meta_classification_type": "U",
        "meta_norad_cat_id": 31598,
        "meta_element_set_no": 999,
        "meta_rev_at_epoch": 154,
        "meta_bstar": 0.00050733848,
        "meta_mean_motion_dot": 5.595e-05,
        "meta_mean_motion_ddot": 0,
        "tle_line1": "1 31598U 07023A   25344.31297888  .00005595  00000+0  50734-3 0  9997",
        "tle_line2": "2 31598  97.8835 169.6965 0001056  85.0865 275.0476 14.95734223  1545"
      },
      "geometry": {
        "type": "Point",
        "coordinates": [
          -15.578629562742575,
          -35.08110155767478
        ]
      }
    },
    {
      "type": "Feature",
      "properties": {
        "norad_id": 31698,
        "name": "TERRASAR-X",
        "group": "resource",
        "lat": 52.32586612921471,
        "lon": -19.717874386750665,
        "alt_km": 502.39473287395504,
        "timestamp": "2025-12-10T14:53:36.779198+00:00",
        "meta_object_name": "TERRASAR-X",
        "meta_object_id": "2007-026A",
        "meta_epoch": "2025-12-09T11:47:13.204320",
        "meta_mean_motion": 15.19146544,
        "meta_eccentricity": 0.0001961,
        "meta_inclination": 97.4451,
        "meta_ra_of_asc_node": 348.9193,
        "meta_arg_of_pericenter": 86.8081,
        "meta_mean_anomaly": 273.3378,
        "meta_ephemeris_type": 0,
        "meta_classification_type": "U",
        "meta_norad_cat_id": 31698,
        "meta_element_set_no": 999,
        "meta_rev_at_epoch": 2442,
        "meta_bstar": 0.00012751,
        "meta_mean_motion_dot": 2.611e-05,
        "meta_mean_motion_ddot": 0,
        "tle_line1": "1 31698U 07026A   25343.49112505  .00002611  00000+0  12751-3 0  9994",
        "tle_line2": "2 31698  97.4451 348.9193 0001961  86.8081 273.3378 15.19146544 24429"
      },
      "geometry": {
        "type": "Point",
        "coordinates": [
          -19.717874386750665,
          52.32586612921471
        ]
      }
    },
    {
      "type": "Feature",
      "properties": {
        "norad_id": 32060,
        "name": "WORLDVIEW-1 (WV-1)",
        "group": "resource",
        "lat": 12.154810811107588,
        "lon": 100.53077257839892,
        "alt_km": 493.2807139356928,
        "timestamp": "2025-12-10T14:53:36.779226+00:00",
        "meta_object_name": "WORLDVIEW-1 (WV-1)",
        "meta_object_id": "2007-041A",
        "meta_epoch": "2025-12-10T06:57:50.791680",
        "meta_mean_motion": 15.24623427,
        "meta_eccentricity": 7.254e-05,
        "meta_inclination": 97.3835,
        "meta_ra_of_asc_node": 101.8056,
        "meta_arg_of_pericenter": 104.6633,
        "meta_mean_anomaly": 255.4685,
        "meta_ephemeris_type": 0,
        "meta_classification_type": "U",
        "meta_norad_cat_id": 32060,
        "meta_element_set_no": 999,
        "meta_rev_at_epoch": 1410,
        "meta_bstar": 0.00052474376,
        "meta_mean_motion_dot": 0.00012888,
        "meta_mean_motion_ddot": 0,
        "tle_line1": "1 32060U 07041A   25344.29017120  .00012888  00000+0  52474-3 0  9994",
        "tle_line2": "2 32060  97.3835 101.8056 0000725 104.6633 255.4685 15.24623427 14103"
      },
      "geometry": {
        "type": "Point",
        "coordinates": [
          100.53077257839892,
          12.154810811107588
        ]
      }
    },
    {
      "type": "Feature",
      "properties": {
        "norad_id": 32289,
        "name": "YAOGAN-3",
        "group": "resource",
        "lat": 68.80501099821753,
        "lon": -147.93101540616064,
        "alt_km": 591.0331888044147,
        "timestamp": "2025-12-10T14:53:36.779243+00:00",
        "meta_object_name": "YAOGAN-3",
        "meta_object_id": "2007-055A",
        "meta_epoch": "2025-12-10T07:57:19.154880",
        "meta_mean_motion": 14.89836425,
        "meta_eccentricity": 0.00013316,
        "meta_inclination": 97.8367,
        "meta_ra_of_asc_node": 10.9781,
        "meta_arg_of_pericenter": 72.5653,
        "meta_mean_anomaly": 287.571,
        "meta_ephemeris_type": 0,
        "meta_classification_type": "U",
        "meta_norad_cat_id": 32289,
        "meta_element_set_no": 999,
        "meta_rev_at_epoch": 97773,
        "meta_bstar": 0.00023223461,
        "meta_mean_motion_dot": 2.175e-05,
        "meta_mean_motion_ddot": 0,
        "tle_line1": "1 32289U 07055A   25344.33147170  .00002175  00000+0  23223-3 0  9994",
        "tle_line2": "2 32289  97.8367  10.9781 0001331  72.5653 287.5710 14.89836425977731"
      },
      "geometry": {
        "type": "Point",
        "coordinates": [
          -147.93101540616064,
          68.80501099821753
        ]
      }
    }
  ]
}